ONEWEB-0055             
1 45443U 20020V   21024.91667824  .00044216  00000-0  12416+0 0  9996
2 45443  87.8834  52.5498 0001891  96.0823  33.6785 13.11398946 44511
ONEWEB-0093             
1 45444U 20020W   21024.91667824  .00040371  00000-0  11333+0 0  9992
2 45444  87.8840  52.5983 0002119  58.4496 256.0500 13.11444484 44582
ONEWEB-0029             
1 45445U 20020X   21024.91667824  .00044178  00000-0  12406+0 0  9994
2 45445  87.8862  52.5788 0001847  92.3048  44.8863 13.11394577 44556
ONEWEB-0068             
1 45446U 20020Y   21024.91667824  .00040753  00000-0  11449+0 0  9996
2 45446  87.8841  52.5980 0001793 116.8007 226.0056 13.11389651 44505
ONEWEB-0046             
1 45447U 20020Z   21024.91667824  .00041068  00000-0  11537+0 0  9995
2 45447  87.8844  52.6005 0001599  96.8455 260.6435 13.11391636 44518
ONEWEB-0063             
1 45448U 20020AA  21024.91667824  .00043993  00000-0  12353+0 0  9992
2 45448  87.8855  52.6207 0001058  96.9914  54.7348 13.11402675 44584
ONEWEB-0019             
1 45449U 20020AB  21024.91667824  .00040630  00000-0  11415+0 0  9996
2 45449  87.8845  52.5701 0001876  93.4891 242.0024 13.11387267 44443
ONEWEB-0094             
1 45450U 20020AC  21024.58334491 -.00025864  00000-0 -26466-2 0  9991
2 45450  87.5757  41.8157 0024422 264.0298 225.7740 14.90565760 46123
ONEWEB-0087             
1 45451U 20020AD  21024.91667824  .00044156  00000-0  12400+0 0  9991
2 45451  87.8866  52.5968 0001851  92.7419  29.7552 13.11394772 44484
ONEWEB-0082             
1 45452U 20020AE  21024.91667824  .00044120  00000-0  12389+0 0  9999
2 45452  87.8847  52.5729 0001811 102.2763  12.8196 13.11399904 44573
ONEWEB-0050             
1 45453U 20020AF  21024.58334491 -.00026825  00000-0 -24648-2 0  9992
2 45453  87.5400  40.7403 0023404 259.4267 182.3424 14.94860935  1805
ONEWEB-0034             
1 45454U 20020AG  21024.91667824  .00042823  00000-0  12028+0 0  9999
2 45454  87.8850  52.5927 0001443  93.6273 322.5459 13.11390267 44496
ONEWEB-0060             
1 45455U 20020AH  21024.91667824  .00041920  00000-0  11775+0 0  9995
2 45455  87.8849  52.5832 0001695  96.2551 290.6081 13.11392210 44459
ONEWEB-0086             
1 45456U 20020AJ  21024.91667824  .00040432  00000-0  11359+0 0  9991
2 45456  87.8840  52.5829 0001595  96.8247 223.9615 13.11391509 44490
ONEWEB-0088             
1 45457U 20020AK  21024.91667824  .00042575  00000-0  11958+0 0  9997
2 45457  87.8847  52.6193 0001529  95.6797 313.1866 13.11394797 44444
ONEWEB-0102             
1 47258U 20100A   21024.83334491 -.01378325  00000-0 -14053+0 0  9996
2 47258  87.4591  26.6512 0010797 134.0885 234.0198 14.94138216  5716
ONEWEB-0109             
1 47259U 20100B   21024.58334491 -.01476587  00000-0 -21609+0 0  9993
2 47259  87.3378  26.8138 0010307 134.4840 149.2912 14.79150724  1771
ONEWEB-0110             
1 47260U 20100C   21024.83334491 -.01395983  00000-0 -14660+0 0  9992
2 47260  87.4517  26.6453 0010276 135.6944 185.7270 14.93026951  5709
ONEWEB-0111             
1 47261U 20100D   21024.83334491 -.01365631  00000-0 -23625+0 0  9991
2 47261  87.2895  26.7530 0010374 135.0799 288.4529 14.71745221  5662
ONEWEB-0114             
1 47262U 20100E   21024.58334491 -.01424142  00000-0 -24245+0 0  9996
2 47262  87.2669  26.8056 0011223 123.6081 352.8201 14.72571181  1748
ONEWEB-0117             
1 47263U 20100F   21024.58334491 -.01426898  00000-0 -22699+0 0  9998
2 47263  87.3013  26.8086 0011738 142.6444 300.4542 14.75483940  1780
ONEWEB-0118             
1 47264U 20100G   21024.83334491 -.01393341  00000-0 -13363+0 0  9991
2 47264  87.4721  26.6183 0013942 128.4624  82.2885 14.96513716  5715
ONEWEB-0119             
1 47265U 20100H   21024.83334491 -.01382717  00000-0 -14684+0 0  9994
2 47265  87.4421  26.6418 0013882 128.1138  41.4804 14.92500896  5702
ONEWEB-0120             
1 47266U 20100J   21024.83334491 -.01384667  00000-0 -13957+0 0  9993
2 47266  87.4611  26.6370 0011005 137.2084 286.9289 14.94599376  5714
ONEWEB-0121             
1 47267U 20100K   21024.83334491 -.01346135  00000-0 -21448+0 0  9996
2 47267  87.3044  26.7428 0012787 139.8893 245.2282 14.75212868  5676
ONEWEB-0122             
1 47268U 20100L   21024.58334491 -.01407382  00000-0 -24463+0 0  9991
2 47268  87.2815  26.8421 0010342 130.8510 304.3443 14.71640896  1762
ONEWEB-0123             
1 47269U 20100M   21024.83334491 -.01401996  00000-0 -15398+0 0  9992
2 47269  87.4392  26.6580 0009573 130.4859  88.9558 14.91277021  5703
ONEWEB-0124             
1 47270U 20100N   21024.58334491 -.01509236  00000-0 -22195+0 0  9995
2 47270  87.4158  26.8530 0011358 121.8736  57.1425 14.79008116  1748
ONEWEB-0125             
1 47271U 20100P   21024.03625081 -.00432900  00000-0 -46962-1 0  9996
2 47271  87.3987  26.9452 0009131 129.6439 230.5596 14.90332875  5569
ONEWEB-0126             
1 47272U 20100Q   21024.58334491 -.01465429  00000-0 -14690+0 0  9993
2 47272  87.4601  26.7242 0011684 121.4477 284.1265 14.95004297  1795
ONEWEB-0127             
1 47273U 20100R   21024.83334491 -.01369225  00000-0 -13208+0 0  9993
2 47273  87.4678  26.6344 0013406 131.7662  48.0497 14.96239028  5708
ONEWEB-0128             
1 47274U 20100S   21024.83334491 -.01367226  00000-0 -12001+0 0  9993
2 47274  87.4741  26.5746 0014595 113.4480 343.4377 14.99845087  5711
ONEWEB-0129             
1 47275U 20100T   21024.83334491 -.01416627  00000-0 -17575+0 0  9995
2 47275  87.4196  26.6992 0012664 139.2384 215.6930 14.85823098  5688
ONEWEB-0130             
1 47276U 20100U   21024.58334491 -.01508008  00000-0 -16941+0 0  9999
2 47276  87.4559  26.7805 0010615 120.2966  47.5782 14.90058027  1766
ONEWEB-0131             
1 47277U 20100V   21024.83334491 -.01406849  00000-0 -15307+0 0  9993
2 47277  87.4377  26.6464 0009602 129.1332 119.9209 14.91661532  5690
ONEWEB-0132             
1 47278U 20100W   21024.83334491 -.01396863  00000-0 -19912+0 0  9994
2 47278  87.3405  26.7091 0009892 139.9578 106.7920 14.80073852  5662
ONEWEB-0133             
1 47279U 20100X   21024.83334491 -.01378179  00000-0 -12834+0 0  9991
2 47279  87.4898  26.6300 0014389 130.1189 143.8045 14.97608019  5702
ONEWEB-0134             
1 47280U 20100Y   21024.83334491 -.01383664  00000-0 -13768+0 0  9995
2 47280  87.4728  26.6394 0013389 134.8412 346.1107 14.95066758  5701
ONEWEB-0135             
1 47281U 20100Z   21024.58334491 -.01478860  00000-0 -13108+0 0  9999
2 47281  87.4755  26.6659 0014882 115.7890  31.1304 14.99733018  1769
ONEWEB-0136             
1 47282U 20100AA  21024.83334491 -.01389445  00000-0 -15737+0 0  9998
2 47282  87.4376  26.6623 0009917 121.3388   5.2300 14.90014201  5699
ONEWEB-0137             
1 47283U 20100AB  21024.83334491 -.01352305  00000-0 -20282+0 0  9995
2 47283  87.3281  26.7406 0012984 123.4639 139.6991 14.77794986  5669
ONEWEB-0138             
1 47284U 20100AC  21024.83334491 -.01368956  00000-0 -21346+0 0  9997
2 47284  87.3140  26.6799 0013432 133.5733  22.2715 14.76178142  5664
ONEWEB-0139             
1 47285U 20100AD  21024.58334491 -.01446593  00000-0 -13438+0 0  9997
2 47285  87.4841  26.7045 0013970 116.6317 261.3400 14.97874042  1776
ONEWEB-0140             
1 47286U 20100AE  21024.83334491 -.01395188  00000-0 -17342+0 0  9997
2 47286  87.3844  26.6733 0011131 142.8944 179.2367 14.85718156  5667
ONEWEB-0141             
1 47287U 20100AF  21024.83334491 -.01409554  00000-0 -18248+0 0  9997
2 47287  87.3692  26.6785 0013779 126.7408 173.2579 14.84048085  5678
ONEWEB-0142             
1 47288U 20100AG  21024.83334491 -.01385452  00000-0 -15334+0 0  9991
2 47288  87.4453  26.6782 0009692 124.7786  57.6098 14.90927059  5695
ONEWEB-0143             
1 47289U 20100AH  21023.99860000 -.00433822  00000-0 -49583-1 0  9997
2 47289  87.3713  26.9710 0013570 144.3008 215.9129 14.88186468  5550
ONEWEB-0144             
1 47290U 20100AJ  21024.83334491 -.01381694  00000-0 -18874+0 0  9990
2 47290  87.3521  26.6953 0010732 141.2070 243.2232 14.81806671  5666
ONEWEB-0145             
1 47291U 20100AK  21024.83334491  .00054109  00000-0  45004-2 0  9994
2 47291  87.4638  26.5898 0015168 116.2072 221.5082 14.98365684  5705
ONEWEB-0146             
1 47292U 20100AL  21024.83334491 -.01389211  00000-0 -16753+0 0  9999
2 47292  87.4057  26.6854 0014360 132.8827 104.8497 14.87428389  5678
ONEWEB-0147             
1 47293U 20100AM  21024.83334491 -.01411287  00000-0 -19403+0 0  9994
2 47293  87.3797  26.6750 0012104 121.5342 132.5838 14.81588576  5660
